SARSAT 7 (NOAA 15)      
1 25338U 98030A   20109.51101867  .00000042  00000-0  36119-4 0  9992
2 25338  98.7228 134.8503 0011540  79.2192 281.0287 14.25959375140434
METEOSAT-8 (MSG-1)      
1 27509U 02040B   20109.48052038  .00000129  00000-0  00000-0 0  9993
2 27509   6.6229  54.3433 0001407 344.7103  22.4492  1.00266574 64695
GPS BIIR-08             
1 27663U 03005A   20109.50607116 -.00000027  00000-0  00000-0 0  9990
2 27663  56.0969 304.3178 0113949  34.7937 317.1690  2.00555453126169
GPS BIIR-11             
1 28190U 04009A   20107.56297375 -.00000110  00000-0  00000-0 0  9990
2 28190  56.2784   5.1849 0091184  91.2517  91.6887  2.00563176117805
GPS BIIR-12             
1 28361U 04023A   20109.46014878 -.00000004  00000-0  00000+0 0  9993
2 28361  54.0578 177.8744 0143070 234.2751 135.8884  2.00388789115928
GPS BIIR-13             
1 28474U 04045A   20109.41332753 -.00000071  00000-0  00000-0 0  9997
2 28474  54.9330  55.3135 0200066 266.2588  90.6291  2.00563328113285
SARSAT 10 (NOAA 18)     
1 28654U 05018A   20109.51987901  .00000083  00000-0  69315-4 0  9990
2 28654  99.0502 165.3707 0014823  43.9183 316.3164 14.12503692768454
GPS BIIR-14M            
1 28874U 05038A   20108.50912855 -.00000105  00000-0  00000-0 0  9998
2 28874  56.3845   2.5296 0134776 265.9672 261.0536  2.00562946106678
METEOSAT-9 (MSG-2)      
1 28912U 05049B   20109.24133154  .00000009  00000-0  00000+0 0  9993
2 28912   4.2998  70.3452 0001403 352.4158 234.6177  1.00264926 52505
GOES 13                 
1 29155U 06018A   20109.48444598  .00000026  00000-0  00000-0 0  9993
2 29155   0.2841 271.0428 0004169 298.5484 232.9969  1.00272766 20792
SARSAT 11 (METOP-A)     
1 29499U 06044A   20109.55058097 -.00000002  00000-0  18289-4 0  9993
2 29499  98.5295 158.3725 0001776  91.1182  45.6904 14.21495349700194
GPS BIIR-16M            
1 29601U 06052A   20108.83370753 -.00000024  00000-0  00000-0 0  9995
2 29601  56.0829 303.2636 0078942  64.3993 296.4313  2.00559622 98250
GPS BIIR-17M            
1 32260U 07047A   20108.14042093 -.00000015  00000-0  00000+0 0  9991
2 32260  53.1822 173.3297 0120289  49.2732 311.8262  2.00563951 91663
GPS BIIR-18M            
1 32384U 07062A   20108.14111685 -.00000107  00000-0  00000-0 0  9992
2 32384  56.4785   3.2138 0011116 111.1454  19.0821  2.00572897 90405
SARSAT 12 (NOAA 19)     
1 33591U 09005A   20109.51950776  .00000054  00000-0  54773-4 0  9996
2 33591  99.1969 113.3054 0013064 242.0161 117.9688 14.12403386576676
GOES 14                 
1 35491U 09033A   20109.59687855 -.00000107  00000-0  00000-0 0  9991
2 35491   0.1806  97.9195 0008154 128.4732  91.5008  1.00272091 39551
GOES 15                 
1 36411U 10008A   20109.57996078  .00000041  00000-0  00000-0 0  9992
2 36411   0.2579 275.5943 0002166 134.3455 238.0032  1.00265118 37119
GLONASS-K 1             
1 37372U 11009A   20109.58153038 -.00000091  00000-0  00000-0 0  9999
2 37372  65.8470  29.7639 0008568 238.1931 260.1984  2.13107348 71135
GPS BIIF-2              
1 37753U 11036A   20109.41121263 -.00000060  00000-0  00000-0 0  9995
2 37753  56.1361  59.6384 0095497  42.8103  75.8382  2.00569217 64135
GSAT0101 (GALILEO-PFM)  
1 37846U 11060A   20107.94733262 -.00000087  00000-0  00000-0 0  9998
2 37846  56.5909  42.9737 0004629 342.4705  17.4902  1.70475572 52729
GSAT0102 (GALILEO-FM2)  
1 37847U 11060B   20109.33770153 -.00000087  00000-0  00000-0 0  9994
2 37847  56.5926  42.9348 0005787 323.6139 215.7118  1.70475686 52756
LUCH 5A                 
1 37951U 11074B   20109.63080259 -.00000056  00000-0  00000-0 0  9995
2 37951   3.1286 116.7487 0004382 297.8780 186.5318  1.00270915 30627
METEOSAT-10 (MSG-3)     
1 38552U 12035B   20109.23452161  .00000047  00000-0  00000+0 0  9990
2 38552   0.9959   7.5854 0000629  13.9796 278.9491  1.00267258 28649
SARSAT 13 (METOP-B)     
1 38771U 12049A   20109.53239088 -.00000005  00000-0  17901-4 0  9990
2 38771  98.6976 169.7351 0001695 136.0618 359.7669 14.21490335393519
GPS BIIF-3              
1 38833U 12053A   20108.24231694 -.00000047  00000-0  00000-0 0  9990
2 38833  53.6689 235.8495 0094840  37.1766 323.4466  2.00565101 54383
GSAT0103 (GALILEO-FM3)  
1 38857U 12055A   20109.16279412  .00000023  00000-0  00000+0 0  9992
2 38857  54.9668 163.4399 0004585 264.5785  95.4473  1.70473865 46783
GSAT0104 (GALILEO-FM4)  
1 38858U 12055B   20109.09714140  .00000023  00000-0  00000-0 0  9998
2 38858  54.9671 163.4411 0003434 270.1036  89.9349  1.70473804 46780
GPS BIIF-4              
1 39166U 13023A   20109.09642724 -.00000100  00000-0  00000+0 0  9991
2 39166  56.0503 359.1751 0080709  29.5583 330.9312  2.00565492 50721
INSAT-3D                
1 39216U 13038B   20109.48863331 -.00000170  00000-0  00000-0 0  9993
2 39216   0.0629 320.1477 0001939  87.9675  56.9971  1.00271624 24543
GPS BIIF-5              
1 39533U 14008A   20109.10037830 -.00000049  00000-0  00000-0 0  9994
2 39533  53.7877 241.2427 0045440 196.5584 163.2599  2.00564693 44557
LUCH 5V                 
1 39727U 14023A   20109.56646579 -.00000282  00000-0  00000-0 0  9991
2 39727   0.6229 323.6649 0004340  96.3433  85.7485  1.00268899539952
GPS BIIF-6              
1 39741U 14026A   20108.38481310 -.00000058  00000-0  00000-0 0  9990
2 39741  56.1110  59.2064 0021175 296.4132  63.3482  2.00550649 43373
GPS BIIF-7              
1 40105U 14045A   20108.96672660 -.00000011  00000-0  00000-0 0  9990
2 40105  54.5841 178.3645 0013554 105.9256 254.2820  2.00554307 40956
GSAT0201 (GALILEO 5)    
1 40128U 14050A   20107.95405064 -.00000120  00000-0  00000-0 0  9992
2 40128  50.5757   3.8258 1664432  97.2842 281.8344  1.85518975 36569
GSAT0202 (GALILEO 6)    
1 40129U 14050B   20109.29602976 -.00000116  00000-0  00000-0 0  9998
2 40129  50.6139   2.8065 1662676  98.1551 280.9416  1.85519673 38721
GPS BIIF-8              
1 40294U 14068A   20109.33659512  .00000055  00000-0  00000+0 0  9993
2 40294  55.3143 119.2700 0025931  35.6396 324.5766  2.00575233 40042
GLONASS-K 2             
1 40315U 14075A   20108.41014377  .00000004  00000-0  00000-0 0  9992
2 40315  63.9155 268.9498 0015189 203.7020 212.3214  2.13098575 41873
GPS BIIF-9              
1 40534U 15013A   20108.97641112 -.00000027  00000-0  00000+0 0  9997
2 40534  54.2749 297.3563 0046977  10.1450 349.9558  2.00571979 37102
GSAT0203 (GALILEO 7)    
1 40544U 15017A   20108.90102127 -.00000088  00000-0  00000-0 0  9991
2 40544  56.3845  43.0898 0003998 281.6266  78.3044  1.70474750 30826
GSAT0204 (GALILEO 8)    
1 40545U 15017B   20108.68243932 -.00000088  00000-0  00000-0 0  9997
2 40545  56.3909  43.1115 0001467 278.1020  81.8574  1.70475204 31484
GPS BIIF-10             
1 40730U 15033A   20108.13665167 -.00000104  00000-0  00000+0 0  9997
2 40730  55.5686 358.4130 0053641 351.4189   8.5240  2.00566362 34843
METEOSAT-11 (MSG-4)     
1 40732U 15034A   20109.32862149 -.00000018  00000-0  00000+0 0  9995
2 40732   0.4836 218.1705 0000589 244.9834 221.7276  1.00273626 17461
GSAT0205 (GALILEO 9)    
1 40889U 15045A   20108.92573533 -.00000017  00000-0  00000-0 0  9991
2 40889  56.2013 283.7635 0004666  31.1803 328.8261  1.70475255 28635
GSAT0206 (GALILEO 10)   
1 40890U 15045B   20107.97216176 -.00000015  00000-0  00000-0 0  9992
2 40890  56.2013 283.7860 0002887  33.9841 326.0148  1.70475340 28642
GPS BIIF-11             
1 41019U 15062A   20108.18814694  .00000047  00000-0  00000-0 0  9992
2 41019  55.3111 119.1403 0056588 211.1098 148.5948  2.00564565 32665
ELEKTRO-L 2             
1 41105U 15074A   20109.59146728 -.00000109  00000-0  00000-0 0  9993
2 41105   1.0576  98.0850 0002756 323.3190  74.6958  1.00270862 15958
GSAT0209 (GALILEO 12)   
1 41174U 15079A   20107.55773832  .00000010  00000-0  00000+0 0  9999
2 41174  54.9808 163.1813 0005437 301.9524  58.0656  1.70473827 26950
GSAT0208 (GALILEO 11)   
1 41175U 15079B   20107.77749936  .00000012  00000-0  00000+0 0  9994
2 41175  54.9793 163.1747 0004648 301.1726  58.8535  1.70474005 26963
GPS BIIF-12             
1 41328U 16007A   20109.27664982 -.00000007  00000-0  00000-0 0  9996
2 41328  54.8211 178.8225 0040015 221.1118 138.6450  2.00559900 30741
GSAT0211 (GALILEO 14)   
1 41549U 16030A   20109.07286639 -.00000017  00000-0  00000+0 0  9994
2 41549  56.3431 283.6061 0002549 350.0345   9.9386  1.70475000 24277
GSAT0210 (GALILEO 13)   
1 41550U 16030B   20108.19267493 -.00000015  00000-0  00000+0 0  9993
2 41550  56.3430 283.6317 0001052 308.7558  51.2147  1.70475139 24252
INSAT-3DR               
1 41752U 16054A   20109.48697583 -.00000091  00000-0  00000-0 0  9998
2 41752   0.1322  91.7048 0011454 185.0362 179.5921  1.00273695 13245
GSAT0207 (GALILEO 15)   
1 41859U 16069A   20108.43727964  .00000016  00000-0  00000+0 0  9998
2 41859  54.6393 163.5351 0005406 290.5789  69.4373  1.70473841 21244
GSAT0212 (GALILEO 16)   
1 41860U 16069B   20108.29071838  .00000015  00000-0  00000-0 0  9996
2 41860  54.6366 163.5380 0004252 307.4536  52.5813  1.70473829 21264
GSAT0213 (GALILEO 17)   
1 41861U 16069C   20108.07002478  .00000013  00000-0  00000+0 0  9994
2 41861  54.6402 163.5480 0004739 271.9077  88.1105  1.70473869 21265
GSAT0214 (GALILEO 18)   
1 41862U 16069D   20108.80359385  .00000019  00000-0  00000+0 0  9994
2 41862  54.6375 163.5234 0003917 276.5196  83.5118  1.70473913 21265
GOES 16                 
1 41866U 16071A   20109.52902353 -.00000261  00000-0  00000-0 0  9991
2 41866   0.0210 295.2457 0001190 144.7389 242.3775  1.00272745 12541
GSAT-17                 
1 42815U 17040B   20109.49090146 -.00000272  00000-0  00000-0 0  9999
2 42815   0.0594  95.4523 0002553 210.7033 171.1255  1.00272173 10229
GSAT0215 (GALILEO 19)   
1 43055U 17079A   20108.12015658 -.00000015  00000-0  00000-0 0  9997
2 43055  56.3173 283.4769 0000402 324.8793  35.0978  1.70474255 14591
GSAT0216 (GALILEO 20)   
1 43056U 17079B   20108.99954205 -.00000017  00000-0  00000+0 0  9994
2 43056  56.3175 283.4522 0002179 281.3406  78.6130  1.70474405 14592
GSAT0217 (GALILEO 21)   
1 43057U 17079C   20108.04641634 -.00000014  00000-0  00000+0 0  9997
2 43057  56.3162 283.4792 0001997 308.8878  51.0743  1.70474284 14593
GSAT0218 (GALILEO 22)   
1 43058U 17079D   20108.85297262 -.00000016  00000-0  00000+0 0  9993
2 43058  56.3166 283.4543 0002583 272.1809  87.7680  1.70474341 14603
GOES 17                 
1 43226U 18022A   20109.57355633  .00000084  00000-0  00000-0 0  9991
2 43226   0.0259 290.7402 0000731 126.0236 219.6603  1.00272260  7846
GSAT0221 (GALILEO 25)   
1 43564U 18060A   20108.75281937 -.00000088  00000-0  00000+0 0  9996
2 43564  56.7726  42.7053 0005175 292.5631  67.3584  1.70475700 10795
GSAT0222 (GALILEO 26)   
1 43565U 18060B   20107.21292254 -.00000087  00000-0  00000-0 0  9991
2 43565  56.7741  42.7467 0005176 299.9528  59.9736  1.70475681 10805
GSAT0219 (GALILEO 23)   
1 43566U 18060C   20108.01973378 -.00000088  00000-0  00000+0 0  9994
2 43566  56.7754  42.7263 0004728 297.2229  62.7059  1.70475552 10790
GSAT0220 (GALILEO 24)   
1 43567U 18060D   20108.82619879 -.00000088  00000-0  00000-0 0  9998
2 43567  56.7754  42.7042 0004815 297.7476  62.1799  1.70475778 10797
BEIDOU-3 M13            
1 43622U 18072A   20109.31200251  .00000057  00000-0  00000-0 0  9993
2 43622  55.1155 137.9427 0008230 283.3908 220.6458  1.86231612 10738
BEIDOU-3 M14            
1 43623U 18072B   20109.49526323  .00000059  00000-0  00000-0 0  9996
2 43623  55.1181 137.9260 0006610 302.6755  54.4302  1.86231703 10730
METEOR-M2 2             
1 44387U 19038A   20109.48793159 -.00000032  00000-0  48282-5 0  9990
2 44387  98.6137  70.7395 0002381  65.6600 294.4827 14.23678090 41001
